[{"OBJECT_NAME":"ONEWEB-0292","OBJECT_ID":"2021-083A","EPOCH":"2026-03-09T18:05:27.590784","MEAN_MOTION":13.13472103,"ECCENTRICITY":0.00015434,"INCLINATION":87.9027,"RA_OF_ASC_NODE":340.0294,"ARG_OF_PERICENTER":73.1666,"MEAN_ANOMALY":286.9633,"EPHEMERIS_TYPE":0,"CLASSIFICATION_TYPE":"U","NORAD_CAT_ID":49186,"ELEMENT_SET_NO":999,"REV_AT_EPOCH":21787,"BSTAR":0.00047041726,"MEAN_MOTION_DOT":1.85e-6,"MEAN_MOTION_DDOT":0},{"OBJECT_NAME":"SS-18 R\/B","OBJECT_ID":"1999-021C","EPOCH":"2026-03-09T09:15:45.322272","MEAN_MOTION":13.73024449,"ECCENTRICITY":0.05595907,"INCLINATION":64.5537,"RA_OF_ASC_NODE":57.4722,"ARG_OF_PERICENTER":331.1631,"MEAN_ANOMALY":25.9515,"EPHEMERIS_TYPE":0,"CLASSIFICATION_TYPE":"U","NORAD_CAT_ID":25695,"ELEMENT_SET_NO":999,"REV_AT_EPOCH":34627,"BSTAR":0.00018610859,"MEAN_MOTION_DOT":4.28e-6,"MEAN_MOTION_DDOT":0}]
